SWARM A                 
1 39452U 13067B   26167.83253328  .00009054  00000+0  15561-3 0  9994
2 39452  87.3323  56.3738 0003011  95.1870 264.9735 15.50948705706191
SWARM C                 
1 39453U 13067C   26167.83241973  .00008947  00000+0  15377-3 0  9993
2 39453  87.3323  54.9548 0002993  95.3592 264.8011 15.50947109706155
BRITE-CA1 (TORONTO)     
1 40020U 14033L   26167.35833890  .00000605  00000+0  98796-4 0  9991
2 40020  97.9738 296.3015 0077228 279.7207  79.5284 14.72675728642092
OCO 2                   
1 40059U 14035A   26167.81213400  .00000322  00000+0  81480-4 0  9993
2 40059  98.2017 109.1108 0001501  85.2948 274.8422 14.57110969635994
BRITE-PL2 (HEWELIUSZ)   
1 40119U 14049B   26167.30201463  .00001445  00000+0  13881-3 0  9991
2 40119  97.9097 279.2951 0015251 111.1081 249.1771 14.94590679641310
MMS 1                   
1 40482U 15011A   26167.91668980 -.00000758  00000+0  00000+0 0  9994
2 40482  72.1725 348.7665 8321853 167.4231 270.8776  0.28343876  1387
MMS 2                   
1 40483U 15011B   26167.91668980 -.00000758  00000+0  00000+0 0  9995
2 40483  72.1726 348.7687 8322637 167.4287 270.8663  0.28343907  1385
MMS 3                   
1 40484U 15011C   26167.91668980 -.00000758  00000+0  00000+0 0  9996
2 40484  72.1723 348.7690 8321510 167.4297 270.8580  0.28341705  1389
MMS 4                   
1 40485U 15011D   26167.91668980 -.00000758  00000+0  00000+0 0  9997
2 40485  72.1723 348.7690 8321510 167.4297 270.8580  0.28341705  1380
ASTROSAT                
1 40930U 15052A   26167.82239102  .00001427  00000+0  91961-4 0  9991
2 40930   5.9955 157.9756 0007819  26.1222 333.9300 14.82506973579772
DAMPE                   
1 41173U 15078A   26167.84156853  .00000932  00000+0  33865-4 0  9991
2 41173  97.4550 173.3065 0013819  78.3154 281.9637 15.30784311584492
PISAT                   
1 41784U 16059B   26167.87154970  .00000696  00000+0  12619-3 0  9990
2 41784  97.8179 168.3379 0028357 203.7910 156.1987 14.68983006519693
HXMT (HUIYAN)           
1 42758U 17034A   26167.73967950  .00002236  00000+0  11695-3 0  9996
2 42758  43.0125 185.5330 0030528 144.2185 216.0717 15.18475330497596
FLYING LAPTOP           
1 42831U 17042G   26167.85223575  .00003612  00000+0  28529-3 0  9991
2 42831  97.4683 323.3978 0019517 122.5784 237.7328 15.01145830486406
ZHANGHENG 1-01 (CSES-1) 
1 43194U 18015C   26167.87580553  .00005926  00000+0  27106-3 0  9999
2 43194  97.6869 333.5266 0017054 267.6038  92.3244 15.20807755464597
SALSAT                  
1 46495U 20068K   26167.75305926  .00006424  00000+0  22536-3 0  9999
2 46495  97.8846 170.7912 0008036 309.8779  50.1753 15.29794360315296
IXPE                    
1 49954U 21121A   26167.83335647  .00009815  00000+0  52709-3 0  9997
2 49954   0.2312 320.2375 0007177  75.7477 109.6334 15.10247743  5513
SMILE                   
1 69123U 26109A   26158.38327019 -.00000041  00000+0 -36778-3 0  9994
2 69123  69.9787 209.3069 3310191 288.5544  45.7342  7.54049028  2480
