OBJECT_NAME,OBJECT_ID,EPOCH,MEAN_MOTION,ECCENTRICITY,INCLINATION,RA_OF_ASC_NODE,ARG_OF_PERICENTER,MEAN_ANOMALY,EPHEMERIS_TYPE,CLASSIFICATION_TYPE,NORAD_CAT_ID,ELEMENT_SET_NO,REV_AT_EPOCH,BSTAR,MEAN_MOTION_DOT,MEAN_MOTION_DDOT
SWARM A,2013-067B,2026-06-16T19:58:50.875392,15.50948705,.0003011,87.3323,56.3738,95.1870,264.9735,0,U,39452,999,70619,.15561E-3,.9054E-4,0
SWARM C,2013-067C,2026-06-16T19:58:41.064672,15.50947109,.0002993,87.3323,54.9548,95.3592,264.8011,0,U,39453,999,70615,.15377E-3,.8947E-4,0
BRITE-CA1 (TORONTO),2014-033L,2026-06-16T08:36:00.480960,14.72675728,.00772282,97.9738,296.3015,279.7207,79.5284,0,U,40020,999,64209,.98796361E-4,.605E-5,0
OCO 2,2014-035A,2026-06-16T19:29:28.377600,14.57110969,.0001501,98.2017,109.1108,85.2948,274.8422,0,U,40059,999,63599,.8148E-4,.322E-5,0
BRITE-PL2 (HEWELIUSZ),2014-049B,2026-06-16T07:14:54.064032,14.94590679,.0015251,97.9097,279.2951,111.1081,249.1771,0,U,40119,999,64131,.13881E-3,.1445E-4,0
MMS 1,2015-011A,2026-06-16T22:00:01.998720,0.28343876,.8321853,72.1725,348.7665,167.4231,270.8776,0,U,40482,999,138,0,-.758E-5,0
MMS 2,2015-011B,2026-06-16T22:00:01.998720,0.28343907,.8322637,72.1726,348.7687,167.4287,270.8663,0,U,40483,999,138,0,-.758E-5,0
MMS 3,2015-011C,2026-06-16T22:00:01.998720,0.28341705,.832151,72.1723,348.7690,167.4297,270.8580,0,U,40484,999,138,0,-.758E-5,0
MMS 4,2015-011D,2026-06-16T22:00:01.998720,0.28341705,.832151,72.1723,348.7690,167.4297,270.8580,0,U,40485,999,138,0,-.758E-5,0
ASTROSAT,2015-052A,2026-06-16T19:44:14.584128,14.82506973,.0007819,5.9955,157.9756,26.1222,333.9300,0,U,40930,999,57977,.91961E-4,.1427E-4,0
DAMPE,2015-078A,2026-06-16T20:11:51.520992,15.30784311,.0013819,97.4550,173.3065,78.3154,281.9637,0,U,41173,999,58449,.33865E-4,.932E-5,0
PISAT,2016-059B,2026-06-16T20:55:01.894080,14.68983006,.0028357,97.8179,168.3379,203.7910,156.1987,0,U,41784,999,51969,.12619E-3,.696E-5,0
HXMT (HUIYAN),2017-034A,2026-06-16T17:45:08.308800,15.18475330,.0030528,43.0125,185.5330,144.2185,216.0717,0,U,42758,999,49759,.11695E-3,.2236E-4,0
FLYING LAPTOP,2017-042G,2026-06-16T20:27:13.168800,15.01145830,.0019517,97.4683,323.3978,122.5784,237.7328,0,U,42831,999,48640,.28529E-3,.3612E-4,0
ZHANGHENG 1-01 (CSES-1),2018-015C,2026-06-16T21:01:09.597792,15.20807755,.0017054,97.6869,333.5266,267.6038,92.3244,0,U,43194,999,46459,.27106E-3,.5926E-4,0
SALSAT,2020-068K,2026-06-16T18:04:24.320064,15.29794360,.0008036,97.8846,170.7912,309.8779,50.1753,0,U,46495,999,31529,.22536E-3,.6424E-4,0
IXPE,2021-121A,2026-06-16T20:00:01.999008,15.10247743,.0007177,0.2312,320.2375,75.7477,109.6334,0,U,49954,999,551,.52709E-3,.9815E-4,0
SMILE,2026-109A,2026-06-07T09:11:54.544416,7.54049028,.3310191,69.9787,209.3069,288.5544,45.7342,0,U,69123,999,248,-.36778E-3,-.41E-6,0
